{
  "type": "FeatureCollection",
  "features": [
    {
      "type": "Feature",
      "properties": {
        "norad_id": 30719,
        "name": "FENGYUN 1C DEB",
        "group": "fengyun-1c-debris",
        "lat": 61.22517202895633,
        "lon": 124.75392745306303,
        "alt_km": 689.8498986179293,
        "timestamp": "2025-12-24T16:52:41.810409+00:00",
        "meta_object_name": "FENGYUN 1C DEB",
        "meta_object_id": "1999-025ASD",
        "meta_epoch": "2025-12-21T03:02:06.375552",
        "meta_mean_motion": 14.59483939,
        "meta_eccentricity": 0.00106523,
        "meta_inclination": 98.8874,
        "meta_ra_of_asc_node": 137.4798,
        "meta_arg_of_pericenter": 172.891,
        "meta_mean_anomaly": 187.2441,
        "meta_ephemeris_type": 0,
        "meta_classification_type": "U",
        "meta_norad_cat_id": 30719,
        "meta_element_set_no": 999,
        "meta_rev_at_epoch": 97571,
        "meta_bstar": 0.0021584794,
        "meta_mean_motion_dot": 0.0001021,
        "meta_mean_motion_ddot": 0,
        "tle_line1": "1 30719U 99025ASD 25355.12646268  .00010210  00000+0  21585-2 0  9996",
        "tle_line2": "2 30719  98.8874 137.4798 0010652 172.8910 187.2441 14.59483939975718"
      },
      "geometry": {
        "type": "Point",
        "coordinates": [
          124.75392745306303,
          61.22517202895633
        ]
      }
    },
    {
      "type": "Feature",
      "properties": {
        "norad_id": 30720,
        "name": "FENGYUN 1C DEB",
        "group": "fengyun-1c-debris",
        "lat": -33.94884627973407,
        "lon": -13.52179771215234,
        "alt_km": 796.4990156307331,
        "timestamp": "2025-12-24T16:52:41.810420+00:00",
        "meta_object_name": "FENGYUN 1C DEB",
        "meta_object_id": "1999-025ASE",
        "meta_epoch": "2025-12-24T06:37:06.603168",
        "meta_mean_motion": 14.29146216,
        "meta_eccentricity": 0.00323706,
        "meta_inclination": 99.0355,
        "meta_ra_of_asc_node": 172.1848,
        "meta_arg_of_pericenter": 295.2726,
        "meta_mean_anomaly": 241.253,
        "meta_ephemeris_type": 0,
        "meta_classification_type": "U",
        "meta_norad_cat_id": 30720,
        "meta_element_set_no": 999,
        "meta_rev_at_epoch": 97653,
        "meta_bstar": 0.00039369977,
        "meta_mean_motion_dot": 9.57e-06,
        "meta_mean_motion_ddot": 0,
        "tle_line1": "1 30720U 99025ASE 25358.27577087  .00000957  00000+0  39370-3 0  9998",
        "tle_line2": "2 30720  99.0355 172.1848 0032370 295.2726 241.2530 14.29146216976537"
      },
      "geometry": {
        "type": "Point",
        "coordinates": [
          -13.52179771215234,
          -33.94884627973407
        ]
      }
    },
    {
      "type": "Feature",
      "properties": {
        "norad_id": 30721,
        "name": "FENGYUN 1C DEB",
        "group": "fengyun-1c-debris",
        "lat": 41.07722702825166,
        "lon": -41.47072686007887,
        "alt_km": 669.6282655204213,
        "timestamp": "2025-12-24T16:52:41.810430+00:00",
        "meta_object_name": "FENGYUN 1C DEB",
        "meta_object_id": "1999-025ASF",
        "meta_epoch": "2025-12-23T19:46:14.939328",
        "meta_mean_motion": 14.7229064,
        "meta_eccentricity": 0.00284469,
        "meta_inclination": 98.7102,
        "meta_ra_of_asc_node": 129.9082,
        "meta_arg_of_pericenter": 305.4606,
        "meta_mean_anomaly": 214.1274,
        "meta_ephemeris_type": 0,
        "meta_classification_type": "U",
        "meta_norad_cat_id": 30721,
        "meta_element_set_no": 999,
        "meta_rev_at_epoch": 98005,
        "meta_bstar": 0.0034215159,
        "meta_mean_motion_dot": 0.00021764,
        "meta_mean_motion_ddot": 0,
        "tle_line1": "1 30721U 99025ASF 25357.82378402  .00021764  00000+0  34215-2 0  9990",
        "tle_line2": "2 30721  98.7102 129.9082 0028446 305.4606 214.1274 14.72290640980059"
      },
      "geometry": {
        "type": "Point",
        "coordinates": [
          -41.47072686007887,
          41.07722702825166
        ]
      }
    },
    {
      "type": "Feature",
      "properties": {
        "norad_id": 30723,
        "name": "FENGYUN 1C DEB",
        "group": "fengyun-1c-debris",
        "lat": 46.88152101733828,
        "lon": -85.28919680473628,
        "alt_km": 750.4030578022393,
        "timestamp": "2025-12-24T16:52:41.810440+00:00",
        "meta_object_name": "FENGYUN 1C DEB",
        "meta_object_id": "1999-025ASH",
        "meta_epoch": "2025-12-24T04:53:23.375328",
        "meta_mean_motion": 14.41486775,
        "meta_eccentricity": 0.00163762,
        "meta_inclination": 98.8427,
        "meta_ra_of_asc_node": 84.6243,
        "meta_arg_of_pericenter": 228.7923,
        "meta_mean_anomaly": 192.9948,
        "meta_ephemeris_type": 0,
        "meta_classification_type": "U",
        "meta_norad_cat_id": 30723,
        "meta_element_set_no": 999,
        "meta_rev_at_epoch": 97536,
        "meta_bstar": 0.0023189955,
        "meta_mean_motion_dot": 7.5e-05,
        "meta_mean_motion_ddot": 0,
        "tle_line1": "1 30723U 99025ASH 25358.20374277  .00007500  00000+0  23190-2 0  9993",
        "tle_line2": "2 30723  98.8427  84.6243 0016376 228.7923 192.9948 14.41486775975367"
      },
      "geometry": {
        "type": "Point",
        "coordinates": [
          -85.28919680473628,
          46.88152101733828
        ]
      }
    },
    {
      "type": "Feature",
      "properties": {
        "norad_id": 30724,
        "name": "FENGYUN 1C DEB",
        "group": "fengyun-1c-debris",
        "lat": -35.10353217072778,
        "lon": -2.2602953895979936,
        "alt_km": 708.6748750510797,
        "timestamp": "2025-12-24T16:52:41.810451+00:00",
        "meta_object_name": "FENGYUN 1C DEB",
        "meta_object_id": "1999-025ASJ",
        "meta_epoch": "2025-12-24T06:41:34.514880",
        "meta_mean_motion": 14.37077528,
        "meta_eccentricity": 0.00931299,
        "meta_inclination": 99.3156,
        "meta_ra_of_asc_node": 183.9059,
        "meta_arg_of_pericenter": 226.1302,
        "meta_mean_anomaly": 315.2443,
        "meta_ephemeris_type": 0,
        "meta_classification_type": "U",
        "meta_norad_cat_id": 30724,
        "meta_element_set_no": 999,
        "meta_rev_at_epoch": 98618,
        "meta_bstar": 0.00042213285,
        "meta_mean_motion_dot": 1.264e-05,
        "meta_mean_motion_ddot": 0,
        "tle_line1": "1 30724U 99025ASJ 25358.27887170  .00001264  00000+0  42213-3 0  9991",
        "tle_line2": "2 30724  99.3156 183.9059 0093129 226.1302 315.2443 14.37077528986184"
      },
      "geometry": {
        "type": "Point",
        "coordinates": [
          -2.2602953895979936,
          -35.10353217072778
        ]
      }
    },
    {
      "type": "Feature",
      "properties": {
        "norad_id": 30725,
        "name": "FENGYUN 1C DEB",
        "group": "fengyun-1c-debris",
        "lat": -11.009362793813223,
        "lon": -114.11398583191517,
        "alt_km": 903.1564707594098,
        "timestamp": "2025-12-24T16:52:41.810461+00:00",
        "meta_object_name": "FENGYUN 1C DEB",
        "meta_object_id": "1999-025ASK",
        "meta_epoch": "2025-12-24T04:21:56.133216",
        "meta_mean_motion": 14.1612191,
        "meta_eccentricity": 0.00867729,
        "meta_inclination": 99.0064,
        "meta_ra_of_asc_node": 67.1271,
        "meta_arg_of_pericenter": 357.4716,
        "meta_mean_anomaly": 57.373,
        "meta_ephemeris_type": 0,
        "meta_classification_type": "U",
        "meta_norad_cat_id": 30725,
        "meta_element_set_no": 999,
        "meta_rev_at_epoch": 96510,
        "meta_bstar": 0.0011734113,
        "meta_mean_motion_dot": 2.361e-05,
        "meta_mean_motion_ddot": 0,
        "tle_line1": "1 30725U 99025ASK 25358.18189969  .00002361  00000+0  11734-2 0  9995",
        "tle_line2": "2 30725  99.0064  67.1271 0086772 357.4716  57.3730 14.16121910965106"
      },
      "geometry": {
        "type": "Point",
        "coordinates": [
          -114.11398583191517,
          -11.009362793813223
        ]
      }
    },
    {
      "type": "Feature",
      "properties": {
        "norad_id": 30726,
        "name": "FENGYUN 1C DEB",
        "group": "fengyun-1c-debris",
        "lat": -64.61769007584633,
        "lon": 20.922955880048143,
        "alt_km": 879.1768244394061,
        "timestamp": "2025-12-24T16:52:41.810472+00:00",
        "meta_object_name": "FENGYUN 1C DEB",
        "meta_object_id": "1999-025ASL",
        "meta_epoch": "2025-12-22T12:58:30.564192",
        "meta_mean_motion": 14.09336683,
        "meta_eccentricity": 0.00783825,
        "meta_inclination": 99.2678,
        "meta_ra_of_asc_node": 358.5691,
        "meta_arg_of_pericenter": 198.8017,
        "meta_mean_anomaly": 287.7405,
        "meta_ephemeris_type": 0,
        "meta_classification_type": "U",
        "meta_norad_cat_id": 30726,
        "meta_element_set_no": 999,
        "meta_rev_at_epoch": 96121,
        "meta_bstar": 0.0010169439,
        "meta_mean_motion_dot": 1.776e-05,
        "meta_mean_motion_ddot": 0,
        "tle_line1": "1 30726U 99025ASL 25356.54063153  .00001776  00000+0  10169-2 0  9990",
        "tle_line2": "2 30726  99.2678 358.5691 0078382 198.8017 287.7405 14.09336683961215"
      },
      "geometry": {
        "type": "Point",
        "coordinates": [
          20.922955880048143,
          -64.61769007584633
        ]
      }
    }
  ]
}